FENGYUN 1C DEB          
1 37003U 99025ECK 17332.40628131 -.00000536  00000-0 -36943-3 0  9993
2 37003  99.1603  33.3186 0099473 265.9200  92.9548 13.91991229419415
